SIRION PATHFINDER-2     
1 43759U 18099B   26154.63724098  .00005317  00000+0  29276-3 0  9996
2 43759  97.4255 204.0173 0008343 357.9385   2.1811 15.14421424410575
CORVUS BC4              
1 43767U 18099K   26154.69163419  .00004481  00000+0  26162-3 0  9997
2 43767  97.4068 198.0675 0009548  55.7800 304.4335 15.12379699410368
M2 PATHFINDER           
1 45727U 20037E   26154.74639941  .00003463  00000+0  25085-3 0  9996
2 45727  97.8146 345.8262 0011308 193.0877 167.0057 15.04610466323478
NETSAT-4                
1 46504U 20068U   26154.57661827  .00018989  00000+0  42675-3 0  9996
2 46504  97.8606 161.7287 0005699  30.7472 329.4107 15.43386179313674
NETSAT-3                
1 46505U 20068V   26154.57235990  .00019667  00000+0  45992-3 0  9994
2 46505  97.8653 159.9578 0006067  46.7511 313.4240 15.42183437313582
NETSAT-1                
1 46506U 20068W   26154.50646046  .00014469  00000+0  43777-3 0  9990
2 46506  97.8746 154.3780 0006456  68.9909 291.2022 15.34296018313200
NETSAT-2                
1 46507U 20068X   26154.57013299  .00024586  00000+0  51556-3 0  9991
2 46507  97.8621 161.5679 0005193  62.6477 297.5299 15.45384645313636
GREENCUBE (IO-117)      
1 53109U 22080E   26152.46502029 -.00000003  00000+0  00000+0 0  9996
2 53109  70.1435 303.7143 0008869 293.3663  66.6064  6.42583280 91055
SITRO-AIS 5 (KATYS)     
1 57176U 23091L   26154.91827304  .00013980  00000+0  49557-3 0  9996
2 57176  97.5062 218.6942 0012504 144.6195 215.5877 15.29133363162315
SITRO-AIS 6 (CHIRKIN)   
1 57192U 23091AC  26154.93243048  .00011400  00000+0  44942-3 0  9991
2 57192  97.5070 217.8973 0012726 147.7418 212.4601 15.25667369162264
SITRO-AIS 8 (ANOKHIN)   
1 57193U 23091AD  26154.89292746  .00015730  00000+0  51404-3 0  9997
2 57193  97.5059 220.2039 0011694 140.7885 219.4205 15.31756572162413
SITRO-AIS 7 (FARTUSHNIY)
1 57194U 23091AE  26154.93289376  .00011218  00000+0  44643-3 0  9992
2 57194  97.5067 217.7295 0012551 148.6979 211.5009 15.25361754162256
SITRO-AIS 10 (BURDAEV)  
1 57199U 23091AK  26154.91473941  .00021666  00000+0  57880-3 0  9993
2 57199  97.5082 225.1449 0008026 119.1175 241.0874 15.38081583162728
SITRO-AIS 9 (SHCHUKIN)  
1 57201U 23091AM  26154.87191882  .00022151  00000+0  60073-3 0  9991
2 57201  97.5081 224.8413 0008228 119.4346 240.7721 15.37609251162707
SITRO-AIS 12 (SMIRENNIY)
1 57204U 23091AQ  26154.93011474  .00021622  00000+0  58107-3 0  9996
2 57204  97.5094 225.3598 0007884 114.1931 246.0139 15.37899468162739
SITRO-AIS 11 (SHEFFER)  
1 57208U 23091AU  26154.88209679  .00021840  00000+0  57917-3 0  9990
2 57208  97.5092 225.5489 0007805 114.3372 245.8689 15.38309013162747
SITRO-AIS 25            
1 59066U 24039R   26154.97613670  .00003665  00000+0  28599-3 0  9996
2 59066  95.3910 226.0145 0145322  15.1116 345.4381 14.93434149122754
SITRO-AIS 26            
1 59067U 24039S   26154.97571256  .00003358  00000+0  26342-3 0  9993
2 59067  95.3910 225.9146 0145651  15.6786 344.8878 14.93231085122744
SITRO-AIS 27            
1 59068U 24039T   26154.94965753  .00004211  00000+0  32679-3 0  9999
2 59068  95.3916 226.1622 0144660  14.4866 346.0439 14.93650392122763
SITRO-AIS 28            
1 59071U 24039U   26154.92739846  .00004101  00000+0  31823-3 0  9991
2 59071  95.3913 226.1935 0144486  14.3352 346.1906 14.93682645122762
GRBBETA                 
1 60237U 24128C   26154.87962689  .00004824  00000+0  33246-3 0  9996
2 60237  61.9905 262.9523 0042441 131.9231 228.5494 15.06538097104265
OOV-CUBE (TUBSAT-30)    
1 60240U 24128F   26154.88050213  .00003041  00000+0  23717-3 0  9994
2 60240  61.9958 271.9701 0046281 130.8013 229.7107 15.02709877104117
ROBUSTA-3A (MEDITERRAN*)
1 60243U 24128J   26154.83857688  .00009406  00000+0  55287-3 0  9991
2 60243  61.9869 255.4438 0043220 125.2822 235.2328 15.11490826104401
LASARSAT                
1 62391U 24247Q   26154.85916206  .00036433  00000+0  74622-3 0  9997
2 62391  44.9754 337.0629 0008041 258.2822 101.7165 15.45489556 81257
CROCUBE                 
1 62394U 24247T   26150.99870369  .00044257  00000+0  86081-3 0  9995
2 62394  44.9730 356.3242 0007341 240.2660 119.7500 15.46917883 80680
FORESAIL-1 PRIME        
1 66778U 25276DS  26154.88437378  .00005984  00000+0  29269-3 0  9998
2 66778  97.4202 228.3996 0003555 131.6607 228.4932 15.18574549 28381
KNACKSAT-2              
1 67683U 98067XZ  26153.80264404  .00045408  00000+0  58253-3 0  9991
2 67683  51.6300   6.7601 0010958 153.2067 206.9494 15.58609395 18031
